OBJECT_NAME,OBJECT_ID,EPOCH,MEAN_MOTION,ECCENTRICITY,INCLINATION,RA_OF_ASC_NODE,ARG_OF_PERICENTER,MEAN_ANOMALY,EPHEMERIS_TYPE,CLASSIFICATION_TYPE,NORAD_CAT_ID,ELEMENT_SET_NO,REV_AT_EPOCH,BSTAR,MEAN_MOTION_DOT,MEAN_MOTION_DDOT
ALOS-2,2014-029A,2026-06-28T21:46:29.810208,14.79472551,.00016209,97.9228,276.9030,90.3673,269.7724,0,U,39766,999,65331,.22620721E-3,.1638E-4,0
KAZEOSAT 2,2014-033A,2026-06-28T22:48:59.179680,14.85481658,.00071053,97.5402,18.9413,284.9394,75.1035,0,U,40010,999,65070,.24790371E-4,.164E-5,0
HODOYOSHI-4,2014-033B,2026-06-28T22:27:05.108256,14.88155373,.00219581,97.5449,4.1910,266.9239,92.9466,0,U,40011,999,65055,.21025155E-3,.1893E-4,0
DEIMOS-2,2014-033D,2026-06-28T21:44:37.795200,14.93754391,.00009631,97.5820,53.9831,53.0625,307.0683,0,U,40013,999,63947,.99767052E-4,.1002E-4,0
HODOYOSHI-3,2014-033F,2026-06-28T21:44:57.230880,14.85410912,.00317607,97.6427,342.4757,317.9417,41.9361,0,U,40015,999,64936,.11990476E-3,.989E-5,0
SPOT 7,2014-034A,2026-06-28T23:04:46.949664,14.60967771,.00013918,98.0630,242.1496,96.3711,263.7648,0,U,40053,999,63885,.74667308E-4,.321E-5,0
SKYSAT-B,2014-037D,2026-06-28T19:48:38.657952,14.88055722,.00043524,98.3843,139.4541,232.1445,127.9376,0,U,40072,999,64769,.14461129E-3,.1268E-4,0
WORLDVIEW-3 (WV-3),2014-048A,2026-06-28T23:00:45.029664,14.85040131,.00000578,97.8565,254.6291,71.3729,288.7492,0,U,40115,999,64365,.96464711E-4,.77E-5,0
GAOFEN-2,2014-049A,2026-06-28T22:23:38.348736,14.80909591,.00069369,98.0111,244.1287,184.4646,175.6506,0,U,40118,999,64097,.66197495E-4,.458E-5,0
YAOGAN-21,2014-053A,2026-06-28T23:05:40.935840,15.26539955,.00095325,97.1472,219.6921,59.7596,300.4586,0,U,40143,999,65675,.14812274E-3,.3806E-4,0
YAOGAN-22,2014-063A,2026-06-28T21:32:28.362336,13.15531377,.00065974,100.7739,331.3659,159.5507,200.5869,0,U,40275,999,56135,.32913342E-4,-.34E-6,0
ASNARO,2014-070A,2026-06-28T22:43:34.783104,15.19602039,.00064918,97.3458,255.7430,131.8371,228.3419,0,U,40298,999,64579,.28063451E-3,.5912E-4,0
YAOGAN-24,2014-072A,2026-06-28T22:39:32.902848,14.76099591,.00133918,98.1497,317.3816,223.4100,136.6055,0,U,40310,999,62545,.12754229E-3,.828E-5,0
CBERS 4,2014-079A,2026-06-28T22:56:58.517376,14.35511624,.000147,98.3533,236.4183,54.7276,305.4047,0,U,40336,999,60564,-.1194925E-5,-.46E-6,0
YAOGAN-26,2014-088A,2026-06-28T23:11:33.914400,15.47826654,.00045313,97.0637,179.9021,39.7247,320.4335,0,U,40362,999,63952,.5492298E-3,.28515E-3,0
SMAP,2015-003A,2026-06-28T23:27:22.170816,14.63376429,.00014416,98.1276,186.9048,97.4125,262.7241,0,U,40376,999,60934,.89553163E-4,.416E-5,0
KOMPSAT-3A,2015-014A,2026-06-28T23:01:28.445664,15.54568241,.00571093,97.6881,172.1865,132.5599,228.0495,0,U,40536,999,62364,.39112747E-3,.27686E-3,0
SENTINEL-2A,2015-028A,2026-06-28T23:06:38.790144,14.30818169,.00011961,98.5689,254.6473,94.9805,265.1515,0,U,40697,999,57541,.37818952E-4,.56E-6,0
GAOFEN-8,2015-030A,2026-06-28T23:54:17.931168,15.46382438,.00095891,97.6899,14.0782,146.3063,213.8797,0,U,40701,999,61327,.44176315E-3,.21805E-3,0
CARBONITE 1 (CBNT-1),2015-032D,2026-06-28T22:01:49.285920,14.83623191,.00129382,97.6505,357.4933,255.1137,104.8645,0,U,40718,999,59108,.27132269E-3,.219E-4,0
YAOGAN-27,2015-040A,2026-06-28T23:07:54.875712,13.16068779,.00080375,100.1150,165.8353,182.2445,177.8633,0,U,40878,999,51921,-.11507525E-2,-.479E-5,0
GAOFEN-9 01,2015-047A,2026-06-28T22:31:33.908160,14.82905661,.00288646,97.6270,215.0992,101.0981,259.3481,0,U,40894,999,58193,.12689082E-3,.985E-5,0
YAOGAN-28,2015-064A,2026-06-28T23:36:05.696064,15.27565685,.00115811,97.3087,318.0059,143.7251,216.4776,0,U,41026,999,59248,.24177761E-3,.6457E-4,0
YAOGAN-29,2015-069A,2026-06-28T23:37:57.305856,14.83095871,.00019863,98.0026,208.6357,37.1995,322.9356,0,U,41038,999,57237,.88228624E-4,.664E-5,0
KENT RIDGE 1,2015-077B,2026-06-28T14:57:26.527680,15.23196172,.00081764,14.9780,180.9327,40.1144,319.9781,0,U,41167,999,58284,.12310094E-3,.3765E-4,0
GAOFEN-4,2015-083A,2026-06-28T12:57:40.904064,1.00269753,.00042636,0.3860,84.0131,110.8539,21.8883,0,U,41194,999,3864,0,-.323E-5,0
JASON-3,2016-002A,2026-06-28T23:08:02.091840,12.87623092,.00083743,66.0416,101.0770,272.1672,87.8388,0,U,41240,999,48876,-.65390052E-4,-.79E-6,0
SENTINEL-3A,2016-011A,2026-06-28T22:16:41.611296,14.26735697,.00014291,98.6246,247.1431,96.2235,263.9108,0,U,41335,999,53973,.5754663E-4,.96E-6,0
ZIYUAN 3-02 (ZY 3-02),2016-033A,2026-06-28T23:07:56.142336,15.21288013,.00125988,97.3839,255.5115,245.0034,114.9894,0,U,41556,999,55977,.22973733E-3,.5078E-4,0
CARTOSAT-2C,2016-040A,2026-06-28T23:34:08.225760,15.19280060,.00104256,97.4484,239.7973,95.9374,264.3050,0,U,41599,999,55550,.19490638E-3,.4048E-4,0
