ALOS-2                  
1 39766U 14029A   26179.90728947  .00001638  00000+0  22621-3 0  9991
2 39766  97.9228 276.9030 0001620  90.3673 269.7724 14.79472551653314
KAZEOSAT 2              
1 40010U 14033A   26179.95068495  .00000164  00000+0  24790-4 0  9993
2 40010  97.5402  18.9413 0007105 284.9394  75.1035 14.85481658650701
HODOYOSHI-4             
1 40011U 14033B   26179.93547579  .00001893  00000+0  21025-3 0  9994
2 40011  97.5449   4.1910 0021958 266.9239  92.9466 14.88155373650555
DEIMOS-2                
1 40013U 14033D   26179.90599300  .00001002  00000+0  99767-4 0  9993
2 40013  97.5820  53.9831 0000963  53.0625 307.0683 14.93754391639471
HODOYOSHI-3             
1 40015U 14033F   26179.90621795  .00000989  00000+0  11990-3 0  9993
2 40015  97.6427 342.4757 0031760 317.9417  41.9361 14.85410912649365
SPOT 7                  
1 40053U 14034A   26179.96165451  .00000321  00000+0  74667-4 0  9995
2 40053  98.0630 242.1496 0001391  96.3711 263.7648 14.60967771638853
SKYSAT-B                
1 40072U 14037D   26179.82544743  .00001268  00000+0  14461-3 0  9995
2 40072  98.3843 139.4541 0004352 232.1445 127.9376 14.88055722647691
WORLDVIEW-3 (WV-3)      
1 40115U 14048A   26179.95885451  .00000770  00000+0  96465-4 0  9995
2 40115  97.8565 254.6291 0000057  71.3729 288.7492 14.85040131643654
GAOFEN-2                
1 40118U 14049A   26179.93308274  .00000458  00000+0  66197-4 0  9992
2 40118  98.0111 244.1287 0006936 184.4646 175.6506 14.80909591640973
YAOGAN-21               
1 40143U 14053A   26179.96227935  .00003806  00000+0  14812-3 0  9998
2 40143  97.1472 219.6921 0009532  59.7596 300.4586 15.26539955656759
YAOGAN-22               
1 40275U 14063A   26179.89755049 -.00000034  00000+0  32913-4 0  9993
2 40275 100.7739 331.3659 0006597 159.5507 200.5869 13.15531377561352
ASNARO                  
1 40298U 14070A   26179.94693036  .00005912  00000+0  28063-3 0  9998
2 40298  97.3458 255.7430 0006491 131.8371 228.3419 15.19602039645797
YAOGAN-24               
1 40310U 14072A   26179.94413082  .00000828  00000+0  12754-3 0  9997
2 40310  98.1497 317.3816 0013391 223.4100 136.6055 14.76099591625455
CBERS 4                 
1 40336U 14079A   26179.95623284 -.00000046  00000+0 -11949-5 0  9991
2 40336  98.3533 236.4183 0001470  54.7276 305.4047 14.35511624605645
YAOGAN-26               
1 40362U 14088A   26179.96636475  .00028515  00000+0  54923-3 0  9993
2 40362  97.0637 179.9021 0004531  39.7247 320.4335 15.47826654639526
SMAP                    
1 40376U 15003A   26179.97733994  .00000416  00000+0  89553-4 0  9999
2 40376  98.1276 186.9048 0001441  97.4125 262.7241 14.63376429609340
KOMPSAT-3A              
1 40536U 15014A   26179.95935701  .00027686  00000+0  39113-3 0  9991
2 40536  97.6881 172.1865 0057109 132.5599 228.0495 15.54568241623647
SENTINEL-2A             
1 40697U 15028A   26179.96294896  .00000056  00000+0  37819-4 0  9992
2 40697  98.5689 254.6473 0001196  94.9805 265.1515 14.30818169575414
GAOFEN-8                
1 40701U 15030A   26179.99604087  .00021805  00000+0  44176-3 0  9999
2 40701  97.6899  14.0782 0009589 146.3063 213.8797 15.46382438613278
CARBONITE 1 (CBNT-1)    
1 40718U 15032D   26179.91793155  .00002190  00000+0  27132-3 0  9995
2 40718  97.6505 357.4933 0012938 255.1137 104.8645 14.83623191591084
YAOGAN-27               
1 40878U 15040A   26179.96382958 -.00000479  00000+0 -11508-2 0  9990
2 40878 100.1150 165.8353 0008037 182.2445 177.8633 13.16068779519213
GAOFEN-9 01             
1 40894U 15047A   26179.93858690  .00000985  00000+0  12689-3 0  9995
2 40894  97.6270 215.0992 0028864 101.0981 259.3481 14.82905661581934
YAOGAN-28               
1 41026U 15064A   26179.98339926  .00006457  00000+0  24178-3 0  9999
2 41026  97.3087 318.0059 0011581 143.7251 216.4776 15.27565685592485
YAOGAN-29               
1 41038U 15069A   26179.98469104  .00000664  00000+0  88229-4 0  9991
2 41038  98.0026 208.6357 0001986  37.1995 322.9356 14.83095871572372
KENT RIDGE 1            
1 41167U 15077B   26179.62322370  .00003765  00000+0  12310-3 0  9999
2 41167  14.9780 180.9327 0008176  40.1144 319.9781 15.23196172582848
GAOFEN-4                
1 41194U 15083A   26179.54005676 -.00000323  00000+0  00000+0 0  9991
2 41194   0.3860  84.0131 0004263 110.8539  21.8883  1.00269753 38641
JASON-3                 
1 41240U 16002A   26179.96391310 -.00000079  00000+0 -65390-4 0  9991
2 41240  66.0416 101.0770 0008374 272.1672  87.8388 12.87623092488766
SENTINEL-3A             
1 41335U 16011A   26179.92825939  .00000096  00000+0  57547-4 0  9993
2 41335  98.6246 247.1431 0001429  96.2235 263.9108 14.26735697539734
ZIYUAN 3-02 (ZY 3-02)   
1 41556U 16033A   26179.96384424  .00005078  00000+0  22974-3 0  9995
2 41556  97.3839 255.5115 0012598 245.0034 114.9894 15.21288013559779
CARTOSAT-2C             
1 41599U 16040A   26179.98203965  .00004048  00000+0  19491-3 0  9998
2 41599  97.4484 239.7973 0010425  95.9374 264.3050 15.19280060555507
